start=new Date('2023-07-02T00:00:00.000Z').valueOf();
sats=[{"NORAD_CAT_ID":"51746","ARG_OF_PERICENTER":"93.3883","OBJECT_TYPE":"PAYLOAD","OBJECT_ID":"2022-016AJ","ECCENTRICITY":"0.00011940","REF_FRAME":"TEME","TIME_SYSTEM":"UTC","MEAN_MOTION_DDOT":"0.0000000000000","REV_AT_EPOCH":"7658","BSTAR":"0.00002700300000","MEAN_ELEMENT_THEORY":"SGP4","EPHEMERIS_TYPE":"0","ELEMENT_SET_NO":"999","RCS_SIZE":"LARGE","MEAN_MOTION":"15.08840277","LAUNCH_DATE":"2022-02-21","MEAN_ANOMALY":"266.7246","MEAN_MOTION_DOT":"0.00000142","COUNTRY_CODE":"US","TLE_LINE1":"1 51746U 22016AJ  23182.77374631  .00000142  00000-0  27003-4 0  9991","SEMIMAJOR_AXIS":"6917.880","CLASSIFICATION_TYPE":"U","SITE":"AFETR","PERIOD":"95.438","OBJECT_NAME":"STARLINK-3502","RA_OF_ASC_NODE":"37.1235","INCLINATION":"53.2182","TLE_LINE2":"2 51746  53.2182  37.1235 0001194  93.3883 266.7246 15.08840277 76587","APOAPSIS":"540.571","FILE":"3947183","GP_ID":"234660313","DECAY_DATE":null,"CENTER_NAME":"EARTH","PERIAPSIS":"538.919","EPOCH":"2023-07-01T18:34:11.681184"},{"PERIAPSIS":"538.904","EPOCH":"2023-07-01T14:50:18.917664","DECAY_DATE":null,"GP_ID":"234660816","FILE":"3947183","CENTER_NAME":"EARTH","TLE_LINE2":"2 51747  53.2181  47.8567 0001244  91.5335 268.5799 15.08833817 76430","APOAPSIS":"540.625","RA_OF_ASC_NODE":"47.8567","INCLINATION":"53.2181","OBJECT_NAME":"STARLINK-3446","PERIOD":"95.438","SITE":"AFETR","CLASSIFICATION_TYPE":"U","TLE_LINE1":"1 51747U 22016AK  23182.61827451 -.00000124  00000-0  10277-4 0  9994","SEMIMAJOR_AXIS":"6917.899","COUNTRY_CODE":"US","MEAN_MOTION_DOT":"-0.00000124","MEAN_ANOMALY":"268.5799","MEAN_MOTION":"15.08833817","LAUNCH_DATE":"2022-02-21","RCS_SIZE":"LARGE","EPHEMERIS_TYPE":"0","ELEMENT_SET_NO":"999","MEAN_ELEMENT_THEORY":"SGP4","REV_AT_EPOCH":"7643","BSTAR":"0.00001027700000","MEAN_MOTION_DDOT":"0.0000000000000","TIME_SYSTEM":"UTC","OBJECT_ID":"2022-016AK","ECCENTRICITY":"0.00012440","REF_FRAME":"TEME","ARG_OF_PERICENTER":"91.5335","OBJECT_TYPE":"PAYLOAD","NORAD_CAT_ID":"51747"},{"BSTAR":"0.00002746100000","REV_AT_EPOCH":"7653","MEAN_MOTION_DDOT":"0.0000000000000","MEAN_ELEMENT_THEORY":"SGP4","ELEMENT_SET_NO":"999","EPHEMERIS_TYPE":"0","RCS_SIZE":"LARGE","NORAD_CAT_ID":"51748","OBJECT_TYPE":"PAYLOAD","ARG_OF_PERICENTER":"95.1861","TIME_SYSTEM":"UTC","REF_FRAME":"TEME","OBJECT_ID":"2022-016AL","ECCENTRICITY":"0.00012050","OBJECT_NAME":"STARLINK-3501","APOAPSIS":"540.584","TLE_LINE2":"2 51748  53.2197  37.1521 0001205  95.1861 264.9269 15.08838219 76535","RA_OF_ASC_NODE":"37.1521","INCLINATION":"53.2197","EPOCH":"2023-07-01T18:22:12.975744","PERIAPSIS":"538.917","CENTER_NAME":"EARTH","GP_ID":"234660322","DECAY_DATE":null,"FILE":"3947183","MEAN_ANOMALY":"264.9269","LAUNCH_DATE":"2022-02-21","MEAN_MOTION":"15.08838219","COUNTRY_CODE":"US","MEAN_MOTION_DOT":"0.00000149","CLASSIFICATION_TYPE":"U","SEMIMAJOR_AXIS":"6917.886","TLE_LINE1":"1 51748U 22016AL  23182.76542796  .00000149  00000-0  27461-4 0  9996","PERIOD":"95.438","SITE":"AFETR"},{"MEAN_MOTION_DDOT":"0.0000000000000","REV_AT_EPOCH":"7642","BSTAR":"-0.00002072500000","MEAN_ELEMENT_THEORY":"SGP4","EPHEMERIS_TYPE":"0","ELEMENT_SET_NO":"999","RCS_SIZE":"LARGE","NORAD_CAT_ID":"51749","ARG_OF_PERICENTER":"94.3096","OBJECT_TYPE":"PAYLOAD","OBJECT_ID":"2022-016AM","ECCENTRICITY":"0.00010350","REF_FRAME":"TEME","TIME_SYSTEM":"UTC","OBJECT_NAME":"STARLINK-3451","RA_OF_ASC_NODE":"47.5052","INCLINATION":"53.2181","TLE_LINE2":"2 51749  53.2181  47.5052 0001035  94.3096 265.8014 15.08833810 76423","APOAPSIS":"540.480","GP_ID":"234660819","FILE":"3947183","DECAY_DATE":null,"CENTER_NAME":"EARTH","PERIAPSIS":"539.048","EPOCH":"2023-07-01T17:27:56.009376","MEAN_MOTION":"15.08833810","LAUNCH_DATE":"2022-02-21","MEAN_ANOMALY":"265.8014","MEAN_MOTION_DOT":"-0.00000618","COUNTRY_CODE":"US","TLE_LINE1":"1 51749U 22016AM  23182.72773159 -.00000618  00000-0 -20725-4 0  9991","SEMIMAJOR_AXIS":"6917.899","CLASSIFICATION_TYPE":"U","SITE":"AFETR","PERIOD":"95.438"},{"MEAN_MOTION_DOT":"-0.00000288","COUNTRY_CODE":"US","LAUNCH_DATE":"2022-02-21","MEAN_MOTION":"15.08837254","MEAN_ANOMALY":"269.7844","SITE":"AFETR","PERIOD":"95.438","TLE_LINE1":"1 51750U 22016AN  23182.75806907 -.00000288  00000-0 -86836-8 0  9996","SEMIMAJOR_AXIS":"6917.889","CLASSIFICATION_TYPE":"U","RA_OF_ASC_NODE":"37.1817","INCLINATION":"53.2186","APOAPSIS":"540.556","TLE_LINE2":"2 51750  53.2186  37.1817 0001160  90.3281 269.7844 15.08837254 76582","OBJECT_NAME":"STARLINK-3505","CENTER_NAME":"EARTH","GP_ID":"234660813","DECAY_DATE":null,"FILE":"3947183","EPOCH":"2023-07-01T18:11:37.167648","PERIAPSIS":"538.951","NORAD_CAT_ID":"51750","REF_FRAME":"TEME","OBJECT_ID":"2022-016AN","ECCENTRICITY":"0.00011600","TIME_SYSTEM":"UTC","OBJECT_TYPE":"PAYLOAD","ARG_OF_PERICENTER":"90.3281","MEAN_ELEMENT_THEORY":"SGP4","MEAN_MOTION_DDOT":"0.0000000000000","BSTAR":"-0.00000000868360","REV_AT_EPOCH":"7658","RCS_SIZE":"LARGE","ELEMENT_SET_NO":"999","EPHEMERIS_TYPE":"0"},{"MEAN_ANOMALY":"273.0717","LAUNCH_DATE":"2022-02-21","MEAN_MOTION":"15.08836393","COUNTRY_CODE":"US","MEAN_MOTION_DOT":"-0.00000088","CLASSIFICATION_TYPE":"U","TLE_LINE1":"1 51751U 22016AP  23182.30542836 -.00000088  00000-0  12557-4 0  9998","SEMIMAJOR_AXIS":"6917.891","PERIOD":"95.438","SITE":"AFETR","OBJECT_NAME":"STARLINK-3506","APOAPSIS":"540.623","TLE_LINE2":"2 51751  53.2186  39.2169 0001252  87.0418 273.0717 15.08836393 76505","RA_OF_ASC_NODE":"39.2169","INCLINATION":"53.2186","EPOCH":"2023-07-01T07:19:49.010304","PERIAPSIS":"538.890","CENTER_NAME":"EARTH","DECAY_DATE":null,"GP_ID":"234653326","FILE":"3946891","NORAD_CAT_ID":"51751","OBJECT_TYPE":"PAYLOAD","ARG_OF_PERICENTER":"87.0418","TIME_SYSTEM":"UTC","REF_FRAME":"TEME","ECCENTRICITY":"0.00012520","OBJECT_ID":"2022-016AP","BSTAR":"0.00001255700000","REV_AT_EPOCH":"7650","MEAN_MOTION_DDOT":"0.0000000000000","MEAN_ELEMENT_THEORY":"SGP4","ELEMENT_SET_NO":"999","EPHEMERIS_TYPE":"0","RCS_SIZE":"LARGE"},{"CLASSIFICATION_TYPE":"U","TLE_LINE1":"1 51752U 22016AQ  23182.75438682 -.00000167  00000-0  76127-5 0  9993","SEMIMAJOR_AXIS":"6917.884","PERIOD":"95.438","SITE":"AFETR","MEAN_ANOMALY":"263.3150","MEAN_MOTION":"15.08838786","LAUNCH_DATE":"2022-02-21","COUNTRY_CODE":"US","MEAN_MOTION_DOT":"-0.00000167","PERIAPSIS":"538.866","EPOCH":"2023-07-01T18:06:19.021248","GP_ID":"234654445","DECAY_DATE":null,"FILE":"3946939","CENTER_NAME":"EARTH","OBJECT_NAME":"STARLINK-3511","TLE_LINE2":"2 51752  53.2183  37.1997 0001277  96.7988 263.3150 15.08838786 76584","APOAPSIS":"540.633","INCLINATION":"53.2183","RA_OF_ASC_NODE":"37.1997","ARG_OF_PERICENTER":"96.7988","OBJECT_TYPE":"PAYLOAD","TIME_SYSTEM":"UTC","ECCENTRICITY":"0.00012770","OBJECT_ID":"2022-016AQ","REF_FRAME":"TEME","NORAD_CAT_ID":"51752","EPHEMERIS_TYPE":"0","ELEMENT_SET_NO":"999","RCS_SIZE":"LARGE","REV_AT_EPOCH":"7658","BSTAR":"0.00000761270000","MEAN_MOTION_DDOT":"0.0000000000000","MEAN_ELEMENT_THEORY":"SGP4"},{"ARG_OF_PERICENTER":"83.3608","OBJECT_TYPE":"PAYLOAD","ECCENTRICITY":"0.00011550","OBJECT_ID":"2022-016AR","REF_FRAME":"TEME","TIME_SYSTEM":"UTC","NORAD_CAT_ID":"51753","EPHEMERIS_TYPE":"0","ELEMENT_SET_NO":"999","RCS_SIZE":"LARGE","MEAN_MOTION_DDOT":"0.0000000000000","REV_AT_EPOCH":"7646","BSTAR":"-0.00000023742000","MEAN_ELEMENT_THEORY":"SGP4","SEMIMAJOR_AXIS":"6917.883","TLE_LINE1":"1 51753U 22016AR  23182.29806439 -.00000292  00000-0 -23742-6 0  9998","CLASSIFICATION_TYPE":"U","SITE":"AFETR","PERIOD":"95.438","MEAN_MOTION":"15.08839207","LAUNCH_DATE":"2022-02-21","MEAN_ANOMALY":"276.7515","MEAN_MOTION_DOT":"-0.00000292","COUNTRY_CODE":"US","GP_ID":"234653037","FILE":"3946891","DECAY_DATE":null,"CENTER_NAME":"EARTH","PERIAPSIS":"538.949","EPOCH":"2023-07-01T07:09:12.763296","OBJECT_NAME":"STARLINK-3507","RA_OF_ASC_NODE":"39.2488","INCLINATION":"53.2181","TLE_LINE2":"2 51753  53.2181  39.2488 0001155  83.3608 276.7515 15.08839207 76466","APOAPSIS":"540.547"},{"EPHEMERIS_TYPE":"0","ELEMENT_SET_NO":"999","RCS_SIZE":"LARGE","MEAN_MOTION_DDOT":"0.0000000000000","REV_AT_EPOCH":"7641","BSTAR":"0.00005376500000","MEAN_ELEMENT_THEORY":"SGP4","ARG_OF_PERICENTER":"89.2955","OBJECT_TYPE":"PAYLOAD","ECCENTRICITY":"0.00010240","OBJECT_ID":"2022-016AS","REF_FRAME":"TEME","TIME_SYSTEM":"UTC","NORAD_CAT_ID":"51754","GP_ID":"234639523","DECAY_DATE":null,"FILE":"3946310","CENTER_NAME":"EARTH","PERIAPSIS":"539.044","EPOCH":"2023-06-30T15:57:42.712416","OBJECT_NAME":"STARLINK-3457","RA_OF_ASC_NODE":"41.8452","INCLINATION":"53.2171","TLE_LINE2":"2 51754  53.2171  41.8452 0001024  89.2955 270.8154 15.08837703 76419","APOAPSIS":"540.461","SEMIMAJOR_AXIS":"6917.887","TLE_LINE1":"1 51754U 22016AS  23181.66507769  .00000568  00000-0  53765-4 0  9993","CLASSIFICATION_TYPE":"U","SITE":"AFETR","PERIOD":"95.438","MEAN_MOTION":"15.08837703","LAUNCH_DATE":"2022-02-21","MEAN_ANOMALY":"270.8154","MEAN_MOTION_DOT":"0.00000568","COUNTRY_CODE":"US"},{"REF_FRAME":"TEME","OBJECT_ID":"2022-016AT","ECCENTRICITY":"0.00009160","TIME_SYSTEM":"UTC","OBJECT_TYPE":"PAYLOAD","ARG_OF_PERICENTER":"77.3772","NORAD_CAT_ID":"51755","RCS_SIZE":"LARGE","ELEMENT_SET_NO":"999","EPHEMERIS_TYPE":"0","MEAN_ELEMENT_THEORY":"SGP4","MEAN_MOTION_DDOT":"0.0000000000000","BSTAR":"-0.00000288310000","REV_AT_EPOCH":"7657","SITE":"AFETR","PERIOD":"95.438","SEMIMAJOR_AXIS":"6917.898","TLE_LINE1":"1 51755U 22016AT  23182.75071019 -.00000334  00000-0 -28831-5 0  9999","CLASSIFICATION_TYPE":"U","MEAN_MOTION_DOT":"-0.00000334","COUNTRY_CODE":"US","LAUNCH_DATE":"2022-02-21","MEAN_MOTION":"15.08834207","MEAN_ANOMALY":"282.7323","CENTER_NAME":"EARTH","DECAY_DATE":null,"GP_ID":"234660329","FILE":"3947196","EPOCH":"2023-07-01T18:01:01.360416","PERIAPSIS":"539.129","RA_OF_ASC_NODE":"37.2166","INCLINATION":"53.2182","APOAPSIS":"540.397","TLE_LINE2":"2 51755  53.2182  37.2166 0000916  77.3772 282.7323 15.08834207 76570","OBJECT_NAME":"STARLINK-3460"}];
